NORAD_CAT_ID,OBJECT_NAME,OBJECT_TYPE,EPOCH,MEAN_MOTION,ECCENTRICITY,INCLINATION,RA_OF_ASC_NODE,ARG_OF_PERICENTER,MEAN_ANOMALY,BSTAR,MEAN_MOTION_DOT,MEAN_MOTION_DDOT,TLE_LINE0,TLE_LINE1,TLE_LINE2,SEMIMAJOR_AXIS,PERIOD,APOGEE,PERIGEE,DECAYED
53715.0,STARLINK-4686,PAYLOAD,2023-09-11 14:11:23,15.08842802,0.0001333,53.2186,19.4286,92.1146,267.9999,6.1667e-05,6.94e-06,0.0,0 STARLINK-4686,1 53715U 22107R   23254.59124557  .00000694  00000-0  61667-4 0  9996,2 53715  53.2186  19.4286 0001333  92.1146 267.9999 15.08842802 57024,6917.872,95.437,540.659,538.815,0.0
53715.0,STARLINK-4686,PAYLOAD,2023-09-11 17:22:09,15.08848525,0.0001371,53.2194,18.8343,93.5834,266.5315,0.00017219,2.454e-05,0.0,0 STARLINK-4686,1 53715U 22107R   23254.72372317  .00002454  00000-0  17219-3 0  9999,2 53715  53.2194  18.8343 0001371  93.5834 266.5315 15.08848525 56586,6917.854,95.437,540.668,538.771,0.0
53715.0,STARLINK-4686,PAYLOAD,2023-09-12 01:19:05,15.08832883,0.000133,53.2187,17.3432,80.8093,279.3049,-0.00013519,-2.438e-05,0.0,0 STARLINK-4686,1 53715U 22107R   23255.05492638 -.00002438  00000-0 -13519-3 0  9998,2 53715  53.2187  17.3432 0001330  80.8093 279.3049 15.08832883 56634,6917.902,95.438,540.687,538.847,0.0
53715.0,STARLINK-4686,PAYLOAD,2023-09-12 12:26:47,15.08842101,9.05e-05,53.2186,15.264,101.4383,258.6711,8.7469e-05,1.105e-05,0.0,0 STARLINK-4686,1 53715U 22107R   23255.51860551  .00001105  00000-0  87469-4 0  9996,2 53715  53.2186  15.2640 0000905 101.4383 258.6711 15.08842101 57169,6917.874,95.437,540.365,539.113,0.0
53715.0,STARLINK-4686,PAYLOAD,2023-09-12 17:12:56,15.08851969,0.000126,53.2177,14.3716,86.9918,273.1218,0.00025517,3.777e-05,0.0,0 STARLINK-4686,1 53715U 22107R   23255.71732083  .00003777  00000-0  25517-3 0  9998,2 53715  53.2177  14.3716 0001260  86.9918 273.1218 15.08851969 56737,6917.844,95.437,540.58,538.837,0.0
53715.0,STARLINK-4686,PAYLOAD,2023-09-12 20:23:42,15.08864634,0.0001236,53.2178,13.7764,87.1522,272.9611,0.00050364,7.742e-05,0.0,0 STARLINK-4686,1 53715U 22107R   23255.84979539  .00007742  00000-0  50364-3 0  9995,2 53715  53.2178  13.7764 0001236  87.1522 272.9611 15.08864634 57212,6917.805,95.436,540.525,538.815,0.0
53715.0,STARLINK-4686,PAYLOAD,2023-09-13 01:09:52,15.08836673,4.93e-05,53.2185,12.8862,126.3913,233.7125,-9.362e-05,-1.777e-05,0.0,0 STARLINK-4686,1 53715U 22107R   23256.04852174 -.00001777  00000-0 -93620-4 0  9990,2 53715  53.2185  12.8862 0000493 126.3913 233.7125 15.08836673 56781,6917.891,95.438,540.097,539.415,0.0
53715.0,STARLINK-4686,PAYLOAD,2023-09-13 13:52:57,15.08853805,0.0001334,53.2184,10.5039,100.7082,259.4061,0.00044264,6.766e-05,0.0,0 STARLINK-4686,1 53715U 22107R   23256.57843948  .00006766  00000-0  44264-3 0  9997,2 53715  53.2184  10.5039 0001334 100.7082 259.4061 15.08853805 57320,6917.838,95.437,540.626,538.78,0.0
53715.0,STARLINK-4686,PAYLOAD,2023-09-13 15:28:20,15.08859004,0.0001277,53.218,10.207,101.2198,258.8938,0.00060295,9.326e-05,0.0,0 STARLINK-4686,1 53715U 22107R   23256.64467798  .00009326  00000-0  60295-3 0  9997,2 53715  53.2180  10.2070 0001277 101.2198 258.8938 15.08859004 56870,6917.822,95.436,540.571,538.804,0.0
53715.0,STARLINK-4686,PAYLOAD,2023-09-13 20:14:29,15.08866702,0.0001248,53.2175,9.3125,110.4555,249.6572,0.00097231,0.00015231,0.0,0 STARLINK-4686,1 53715U 22107R   23256.84339383  .00015231  00000-0  97231-3 0  9999,2 53715  53.2175   9.3125 0001248 110.4555 249.6572 15.08866702 57361,6917.799,95.436,540.527,538.8,0.0
53715.0,STARLINK-4686,PAYLOAD,2023-09-14 01:00:39,15.08819137,4.66e-05,53.2181,8.4234,109.5418,250.5624,-0.00077268,-0.00012556,0.0,0 STARLINK-4686,1 53715U 22107R   23257.04212162 -.00012556  00000-0 -77268-3 0  9994,2 53715  53.2181   8.4234 0000466 109.5418 250.5624 15.08819137 56938,6917.944,95.439,540.132,539.487,0.0
53715.0,STARLINK-4686,PAYLOAD,2023-09-14 12:08:22,15.08820429,0.0001218,53.2177,6.3429,77.4876,282.6252,0.0015437,0.00024352,0.0,0 STARLINK-4686,1 53715U 22107R   23257.50581420  .00024352  00000-0  15437-2 0  9995,2 53715  53.2177   6.3429 0001218  77.4876 282.6252 15.08820429 57461,6917.94,95.439,540.648,538.963,0.0
53715.0,STARLINK-4686,PAYLOAD,2023-09-14 13:43:45,15.0882193,0.0001164,53.2174,6.0449,77.8738,282.2384,0.0017153,0.00027103,0.0,0 STARLINK-4686,1 53715U 22107R   23257.57205444  .00027103  00000-0  17153-2 0  9995,2 53715  53.2174   6.0449 0001164  77.8738 282.2384 15.08821930 57019,6917.936,95.439,540.606,538.995,0.0
53715.0,STARLINK-4686,PAYLOAD,2023-09-14 18:29:55,15.08822671,0.000131,53.2174,5.153,74.3528,285.7609,0.001589,0.00025079,0.0,0 STARLINK-4686,1 53715U 22107R   23257.77077852  .00025079  00000-0  15890-2 0  9993,2 53715  53.2174   5.1530 0001310  74.3528 285.7609 15.08822671 57507,6917.933,95.439,540.705,538.892,0.0
53715.0,STARLINK-4686,PAYLOAD,2023-09-15 00:51:28,15.08832425,0.0001417,53.2174,3.964,70.7309,289.3836,0.0014103,0.00022223,0.0,0 STARLINK-4686,1 53715U 22107R   23258.03574120  .00022223  00000-0  14103-2 0  9997,2 53715  53.2174   3.9640 0001417  70.7309 289.3836 15.08832425 57083,6917.904,95.438,540.749,538.788,0.0
53715.0,STARLINK-4686,PAYLOAD,2023-09-15 13:34:32,15.0885431,0.0001466,53.2186,1.5862,67.5081,292.6067,0.0013242,0.00020858,0.0,0 STARLINK-4686,1 53715U 22107R   23258.56565951  .00020858  00000-0  13242-2 0  9992,2 53715  53.2186   1.5862 0001466  67.5081 292.6067 15.08854310 57621,6917.837,95.437,540.716,538.687,0.0
53715.0,STARLINK-4686,PAYLOAD,2023-09-16 10:14:33,15.08851256,0.0001265,53.2188,357.7205,73.9166,286.1966,0.0010894,0.00017098,0.0,0 STARLINK-4686,1 53715U 22107R   23259.42677698  .00017098  00000-0  10894-2 0  9992,2 53715  53.2188 357.7205 0001265  73.9166 286.1966 15.08851256 57297,6917.846,95.437,540.586,538.836,0.0
53715.0,STARLINK-4686,PAYLOAD,2023-09-16 13:25:19,15.08849266,0.0001307,53.2188,357.1262,71.3441,288.7693,0.0010613,0.00016647,0.0,0 STARLINK-4686,1 53715U 22107R   23259.55925649  .00016647  00000-0  10613-2 0  9996,2 53715  53.2188 357.1262 0001307  71.3441 288.7693 15.08849266 57775,6917.852,95.437,540.621,538.813,0.0
53715.0,STARLINK-4686,PAYLOAD,2023-09-17 13:16:06,15.08867496,0.0001437,53.2188,352.6661,81.112,279.0035,0.0015905,0.00025135,0.0,0 STARLINK-4686,1 53715U 22107R   23260.55285220  .00025135  00000-0  15905-2 0  9993,2 53715  53.2188 352.6661 0001437  81.1120 279.0035 15.08867496 57920,6917.796,95.436,540.655,538.667,0.0
53715.0,STARLINK-4686,PAYLOAD,2023-09-17 22:48:25,15.08843949,9.4e-05,53.2191,350.8825,101.8922,258.2176,0.00029486,4.409e-05,0.0,0 STARLINK-4686,1 53715U 22107R   23260.95029168  .00004409  00000-0  29486-3 0  9995,2 53715  53.2191 350.8825 0000940 101.8922 258.2176 15.08843949 57522,6917.868,95.437,540.384,539.083,0.0
53715.0,STARLINK-4686,PAYLOAD,2023-09-18 13:06:53,15.08851682,0.00014,53.2186,348.2049,88.6257,271.4895,0.00098914,0.00015494,0.0,0 STARLINK-4686,1 53715U 22107R   23261.54645267  .00015494  00000-0  98914-3 0  9993,2 53715  53.2186 348.2049 0001400  88.6257 271.4895 15.08851682 58079,6917.845,95.437,540.678,538.741,0.0
53715.0,STARLINK-4686,PAYLOAD,2023-09-18 16:17:39,15.08855561,0.0001357,53.2182,347.6113,84.4126,275.7021,0.0018656,0.0002954,0.0,0 STARLINK-4686,1 53715U 22107R   23261.67893295  .00029540  00000-0  18656-2 0  9994,2 53715  53.2182 347.6113 0001357  84.4126 275.7021 15.08855561 58090,6917.833,95.437,540.637,538.759,0.0
53715.0,STARLINK-4686,PAYLOAD,2023-09-19 09:46:53,15.08864214,0.0001412,53.2176,344.3403,95.6275,264.4878,0.0013744,0.00021668,0.0,0 STARLINK-4686,1 53715U 22107R   23262.40756827  .00021668  00000-0  13744-2 0  9991,2 53715  53.2176 344.3403 0001412  95.6275 264.4878 15.08864214 57741,6917.806,95.436,540.648,538.695,0.0
53715.0,STARLINK-4686,PAYLOAD,2023-09-19 17:43:48,15.08891644,0.0001478,53.2175,342.8536,89.7399,270.3762,0.0017117,0.00027097,0.0,0 STARLINK-4686,1 53715U 22107R   23262.73875792  .00027097  00000-0  17117-2 0  9990,2 53715  53.2175 342.8536 0001478  89.7399 270.3762 15.08891644 57793,6917.723,95.434,540.61,538.565,0.0
53715.0,STARLINK-4686,PAYLOAD,2023-09-20 12:48:28,15.08809358,0.0001237,53.2169,339.2886,76.3063,283.8066,0.0009466,0.00014797,0.0,0 STARLINK-4686,1 53715U 22107R   23263.53366096  .00014797  00000-0  94660-3 0  9993,2 53715  53.2169 339.2886 0001237  76.3063 283.8066 15.08809358 57918,6917.974,95.439,540.695,538.983,0.0
53715.0,STARLINK-4686,PAYLOAD,2023-09-20 17:34:38,15.08812307,0.0001722,53.2176,338.3917,55.3795,304.7359,0.00086176,0.00013443,0.0,0 STARLINK-4686,1 53715U 22107R   23263.73238662  .00013443  00000-0  86176-3 0  9992,2 53715  53.2176 338.3917 0001722  55.3795 304.7359 15.08812307 58400,6917.965,95.439,541.021,538.639,0.0
53715.0,STARLINK-4686,PAYLOAD,2023-09-21 09:28:29,15.08849824,0.0001617,53.217,335.4194,61.9608,298.1548,0.001698,0.00026846,0.0,0 STARLINK-4686,1 53715U 22107R   23264.39478910  .00026846  00000-0  16980-2 0  9993,2 53715  53.2170 335.4194 0001617  61.9608 298.1548 15.08849824 58048,6917.85,95.437,540.834,538.597,0.0
53715.0,STARLINK-4686,PAYLOAD,2023-09-21 11:03:52,15.08851489,0.0001602,53.2168,335.1222,62.5857,297.5298,0.001605,0.00025356,0.0,0 STARLINK-4686,1 53715U 22107R   23264.46102870  .00025356  00000-0  16050-2 0  9993,2 53715  53.2168 335.1222 0001602  62.5857 297.5298 15.08851489 58518,6917.845,95.437,540.819,538.602,0.0
53715.0,STARLINK-4686,PAYLOAD,2023-09-22 04:33:07,15.08852953,0.0001711,53.2166,331.8517,69.9962,290.1214,0.00057327,8.851e-05,0.0,0 STARLINK-4686,1 53715U 22107R   23265.18966532  .00008851  00000-0  57327-3 0  9990,2 53715  53.2166 331.8517 0001711  69.9962 290.1214 15.08852953 58160,6917.841,95.437,540.889,538.522,0.0
53715.0,STARLINK-4686,PAYLOAD,2023-09-22 10:54:39,15.08857622,0.0001513,53.2164,330.6619,70.6728,289.4427,0.00062543,9.685e-05,0.0,0 STARLINK-4686,1 53715U 22107R   23265.45462240  .00009685  00000-0  62543-3 0  9999,2 53715  53.2164 330.6619 0001513  70.6728 289.4427 15.08857622 58667,6917.827,95.436,540.738,538.645,0.0
